{"URL":"http://www.just-eat.co.uk/restaurants-cn-chinese-cardiff/menu","_id":{"$oid":"55f14312c7447c3da7051b26"},"address":"228 City Road","address line 2":"Cardiff","name":".CN Chinese","outcode":"CF24","postcode":"3JH","rating":5,"type_of_food":"Chinese"}
{"URL":"http://www.just-eat.co.uk/restaurants-atthai-ss9/menu","_id":{"$oid":"55f14312c7447c3da7051b27"},"address":"376 Rayleigh Road","address line 2":"Essex","name":"@ Thai","outcode":"SS9","postcode":"5PT","rating":5.5,"type_of_food":"Thai"}
{"URL":"http://www.just-eat.co.uk/restaurants-atthairestaurant/menu","_id":{"$oid":"55f14312c7447c3da7051b28"},"address":"30 Greyhound Road Hammersmith","address line 2":"London","name":"@ Thai Restaurant","outcode":"W6","postcode":"8NX","rating":4.5,"type_of_food":"Thai"}
{"URL":"http://www.just-eat.co.uk/restaurants-atthairestaurant/menu","_id":{"$oid":"55f14312c7447c3da7051b29"},"address":"30 Greyhound Road Hammersmith","address line 2":"London","name":"@ Thai Restaurant","outcode":"W6","postcode":"8NX","rating":4.5,"type_of_food":"Thai"}
{"URL":"http://www.just-eat.co.uk/restaurants-indiancom-ch4/menu","_id":{"$oid":"55f14312c7447c3da7051b2a"},"address":"9 Broughton Hall Road","address line 2":"Broughton","name":"@Indian.com","outcode":"CH4","postcode":"0QR","rating":6,"type_of_food":"Curry"}
{"URL":"http://www.just-eat.co.uk/restaurants-007takeaway-s65/menu","_id":{"$oid":"55f14312c7447c3da7051b2b"},"address":"6 Drummond Street","address line 2":"Rotherham","name":"007 Takeaway","outcode":"S65","postcode":"1HY","rating":6,"type_of_food":"Pizza"}
{"URL":"http://www.just-eat.co.uk/restaurants-042-restaurant-e11/menu","_id":{"$oid":"55f14312c7447c3da7051b2c"},"address":"885 High Road Leytonstone","address line 2":"London","name":"042 Restaurant \u0026 Bar","outcode":"E11","postcode":"1HR","rating":3,"type_of_food":"African"}
{"URL":"http://www.just-eat.co.uk/restaurants-042-restaurant-e11/menu","_id":{"$oid":"55f14312c7447c3da7051b2d"},"address":"885 High Road Leytonstone","address line 2":"London","name":"042 Restaurant \u0026 Bar","outcode":"E11","postcode":"1HR","rating":3,"type_of_food":"African"}
{"URL":"http://www.just-eat.co.uk/restaurants-042-restaurant-e11/menu","_id":{"$oid":"55f14312c7447c3da7051b2e"},"address":"885 High Road Leytonstone","address line 2":"London","name":"042 Restaurant \u0026 Bar","outcode":"E11","postcode":"1HR","rating":3,"type_of_food":"African"}
{"URL":"http://www.just-eat.co.uk/restaurants-1-2-3-chinese-rowlands-gill/menu","_id":{"$oid":"55f14312c7447c3da7051b2f"},"address":"Unit 4 Spencer House","address line 2":"Swalwell","name":"1 2 3 Chinese","outcode":"NE16","postcode":"3DS","rating":4.5,"type_of_food":"Chinese"}
{"URL":"http://www.just-eat.co.uk/restaurants-1-2-3-chinese-rowlands-gill/menu","_id":{"$oid":"55f14312c7447c3da7051b30"},"address":"Unit 4 Spencer House","address line 2":"Swalwell","name":"1 2 3 Chinese","outcode":"NE16","postcode":"3DS","rating":4.5,"type_of_food":"Chinese"}
{"URL":"http://www.just-eat.co.uk/restaurants-100-degrees-chinese-restaurant-pontypridd/menu","_id":{"$oid":"55f14312c7447c3da7051b31"},"address":"67 Park Street","address line 2":"Treforest","name":"100 Degrees Chinese Restaurant","outcode":"CF37","postcode":"1SN","rating":5,"type_of_food":"Chinese"}
{"URL":"http://www.just-eat.co.uk/restaurants-100menu-wn1/menu","_id":{"$oid":"55f14312c7447c3da7051b32"},"address":"50 Wallgate","address line 2":"Wigan","name":"100 Menu","outcode":"WN1","postcode":"1JU","rating":5,"type_of_food":"Chinese"}
{"URL":"http://www.just-eat.co.uk/restaurants-104-turkish-BBQ/menu","_id":{"$oid":"55f14312c7447c3da7051b33"},"address":"104 Tanners Lane","address line 2":"Essex","name":"104 Turkish BBQ","outcode":"IG6","postcode":"1QE","rating":5,"type_of_food":"Turkish"}
{"URL":"http://www.just-eat.co.uk/restaurants-109restaurant-w2/menu","_id":{"$oid":"55f14312c7447c3da7051b34"},"address":"109 Westbourne Park Road","address line 2":"London","name":"109 Ristorante","outcode":"W2","postcode":"5QL","rating":5,"type_of_food":"Pizza"}
{"URL":"http://www.just-eat.co.uk/restaurants-113-fish-bar-wallasey/menu","_id":{"$oid":"55f14312c7447c3da7051b35"},"address":"113 Poulton Road","address line 2":"Merseyside","name":"113 Fish Bar","outcode":"CH44","postcode":"9DE","rating":5.5,"type_of_food":"Chinese"}
{"URL":"http://www.just-eat.co.uk/restaurants-133-takeaway-irvine/menu","_id":{"$oid":"55f14312c7447c3da7051b36"},"address":"133 Fullarton Street","address line 2":"Irvine","name":"133 Takeaway","outcode":"KA12","postcode":"8DG","rating":"Not yet rated","type_of_food":"Breakfast"}
{"URL":"http://www.just-eat.co.uk/restaurants-1498thespiceaffair-pe11/menu","_id":{"$oid":"55f14312c7447c3da7051b37"},"address":"Red Lion Hotel","address line 2":"Spalding","name":"1498 The Spice Affair","outcode":"PE11","postcode":"1SU","rating":5.5,"type_of_food":"Curry"}
{"URL":"http://www.just-eat.co.uk/restaurants-168chinese-ls18/menu","_id":{"$oid":"55f14312c7447c3da7051b38"},"address":"17 Alexandra Road","address line 2":"West Yorkshire","name":"168 Chinese \u0026 Cantonese Takeaway","outcode":"LS18","postcode":"4HE","rating":5.5,"type_of_food":"Chinese"}
{"URL":"http://www.just-eat.co.uk/restaurants-1awok-pa7/menu","_id":{"$oid":"55f14312c7447c3da7051b39"},"address":"Unit 2 30 Greenock Road","address line 2":"Bishopton","name":"1A Wok","outcode":"PA7","postcode":"5JN","rating":5,"type_of_food":"Chinese"}
{"URL":"http://www.just-eat.co.uk/restaurants-1pizza1com-ls26/menu","_id":{"$oid":"55f14312c7447c3da7051b3a"},"address":"160 Leeds Road","address line 2":"Leeds","name":"1pizza1","outcode":"LS26","postcode":"0JH","rating":4,"type_of_food":"Pizza"}
{"URL":"http://www.just-eat.co.uk/restaurants-1st-choice-pizza-ws11/menu","_id":{"$oid":"55f14312c7447c3da7051b3b"},"address":"1 Walsall Road","address line 2":"Cannock","name":"1st Choice Pizza","outcode":"WS11","postcode":"0HG","rating":4,"type_of_food":"Pizza"}
{"URL":"http://www.just-eat.co.uk/restaurants-1stclasspizza-bs7/menu","_id":{"$oid":"55f14312c7447c3da7051b3c"},"address":"388 Filton Avenue","address line 2":"Bristol","name":"1st Class Pizza","outcode":"BS7","postcode":"0BE","rating":4.5,"type_of_food":"Pizza"}
{"URL":"http://www.just-eat.co.uk/restaurants-1stclasspizza-bs7/menu","_id":{"$oid":"55f14312c7447c3da7051b3d"},"address":"388 Filton Avenue","address line 2":"Bristol","name":"1st Class Pizza","outcode":"BS7","postcode":"0BE","rating":4.5,"type_of_food":"Pizza"}
{"URL":"http://www.just-eat.co.uk/restaurants-1stclasspizza-ng18/menu","_id":{"$oid":"55f14312c7447c3da7051b3e"},"address":"70 Carter Lane","address line 2":"Mansfield","name":"1st Class Pizza","outcode":"NG18","postcode":"3DH","rating":4.5,"type_of_food":"Pizza"}
{"URL":"http://www.just-eat.co.uk/restaurants-1st-class-pizza-and-kebab-house-nottingham/menu","_id":{"$oid":"55f14312c7447c3da7051b3f"},"address":"470 Vernon Road","address line 2":"Old Basford","name":"1st Class Pizza \u0026 Kebab House","outcode":"NG6","postcode":"0AT","rating":4,"type_of_food":"Pizza"}
{"URL":"http://www.just-eat.co.uk/restaurants-241-pizza-ol1/menu","_id":{"$oid":"55f14312c7447c3da7051b40"},"address":"137 Yorkshire Street","address line 2":"Oldham","name":"2 4 1 Pizza","outcode":"OL1","postcode":"3TH","rating":5.5,"type_of_food":"Pizza"}
{"URL":"http://www.just-eat.co.uk/restaurants-2for1pizza-le10/menu","_id":{"$oid":"55f14312c7447c3da7051b41"},"address":"19 Regent Street","address line 2":"Hinckley","name":"2 for 1 Pizza Place","outcode":"LE10","postcode":"0AZ","rating":5.5,"type_of_food":"Pizza"}
{"URL":"http://www.just-eat.co.uk/restaurants-2-spice/menu","_id":{"$oid":"55f14312c7447c3da7051b42"},"address":"2 Station Approach","address line 2":"Upminster","name":"2 Spice","outcode":"RM14","postcode":"2TH","rating":5.5,"type_of_food":"Curry"}
{"URL":"http://www.just-eat.co.uk/restaurants-1treatu-b26/menu","_id":{"$oid":"55f14312c7447c3da7051b43"},"address":"1776 Coventry Road","address line 2":"Birmingham","name":"2 Treat U","outcode":"B26","postcode":"1PB","rating":5.5,"type_of_food":"Pizza"}
{"URL":"http://www.just-eat.co.uk/restaurants-23rdstreetpizza-m14/menu","_id":{"$oid":"55f14312c7447c3da7051b44"},"address":"317 Wilmslow Road","address line 2":"Fallowfield","name":"23rd Street Pizza","outcode":"M14","postcode":"6NW","rating":5,"type_of_food":"American"}
{"URL":"http://www.just-eat.co.uk/restaurants-23rdstreetpizza-m14/menu","_id":{"$oid":"55f14312c7447c3da7051b45"},"address":"317 Wilmslow Road","address line 2":"Fallowfield","name":"23rd Street Pizza","outcode":"M14","postcode":"6NW","rating":5,"type_of_food":"American"}
{"URL":"http://www.just-eat.co.uk/restaurants-241-pizza/menu","_id":{"$oid":"55f14312c7447c3da7051b46"},"address":"107 King Richards Road","address line 2":"Leicester","name":"241 Pizza","outcode":"LE3","postcode":"5QG","rating":5,"type_of_food":"Pizza"}
{"URL":"http://www.just-eat.co.uk/restaurants-241pizza-m9/menu","_id":{"$oid":"55f14312c7447c3da7051b47"},"address":"8 Victoria Avenue","address line 2":"Manchester","name":"241 Pizza","outcode":"M9","postcode":"6QL","rating":5.5,"type_of_food":"Pizza"}
{"URL":"http://www.just-eat.co.uk/restaurants-241pizza-ne38/menu","_id":{"$oid":"55f14312c7447c3da7051b48"},"address":"22 Eddison Road","address line 2":"Newcastle","name":"2-4-1 Pizza","outcode":"NE38","postcode":"8JH","rating":4.5,"type_of_food":"Pizza"}
{"URL":"http://www.just-eat.co.uk/restaurants-241piza-m34/menu","_id":{"$oid":"55f14312c7447c3da7051b49"},"address":"88 Manchester Road","address line 2":"Manchester","name":"2-4-1 Pizza","outcode":"M34","postcode":"3PR","rating":5,"type_of_food":"Pizza"}
{"URL":"http://www.just-eat.co.uk/restaurants-241piza-m34/menu","_id":{"$oid":"55f14312c7447c3da7051b4a"},"address":"88 Manchester Road","address line 2":"Manchester","name":"2-4-1 Pizza","outcode":"M34","postcode":"3PR","rating":5,"type_of_food":"Pizza"}
{"URL":"http://www.just-eat.co.uk/restaurants-280degreesafrican-nw6/menu","_id":{"$oid":"55f14312c7447c3da7051b4b"},"address":"280 Kilburn High Road","address line 2":"London","name":"280 Degrees African \u0026 Nigerian Restaurant","outcode":"NW6","postcode":"2BY","rating":2.5,"type_of_food":"African"}
{"URL":"http://www.just-eat.co.uk/restaurants-280degreesafrican-nw6/menu","_id":{"$oid":"55f14312c7447c3da7051b4c"},"address":"280 Kilburn High Road","address line 2":"London","name":"280 Degrees African \u0026 Nigerian Restaurant","outcode":"NW6","postcode":"2BY","rating":2.5,"type_of_food":"African"}
{"URL":"http://www.just-eat.co.uk/restaurants-3chefsfishbar-de21/menu","_id":{"$oid":"55f14312c7447c3da7051b4d"},"address":"47 Roosevelt Avenue","address line 2":"Derby","name":"3 Chef Fish Bar","outcode":"DE21","postcode":"6JR","rating":4.5,"type_of_food":"Fish \u0026 Chips"}
{"URL":"http://www.just-eat.co.uk/restaurants-3chefs-de23/menu","_id":{"$oid":"55f14312c7447c3da7051b4e"},"address":"558 Burton Road","address line 2":"Littleover","name":"3 Chefs","outcode":"DE23","postcode":"6FP","rating":4.5,"type_of_food":"American"}
{"URL":"http://www.just-eat.co.uk/restaurants-3in1dunoon-pa23/menu","_id":{"$oid":"55f14312c7447c3da7051b4f"},"address":"45 Argyll Street DUNOON","address line 2":"Argyll","name":"3 In 1 Dunoon","outcode":"PA23","postcode":"7HG","rating":5,"type_of_food":"Curry"}
{"URL":"http://www.just-eat.co.uk/restaurants-3in1-indian-cuisine-g78/menu","_id":{"$oid":"55f14312c7447c3da7051b50"},"address":"58 Aurs Drive","address line 2":"Barrhead","name":"3 in 1 Indian \u0026 Chipshop Barrhead","outcode":"G78","postcode":"2LW","rating":4.5,"type_of_food":"English"}
{"URL":"http://www.just-eat.co.uk/restaurants-3in1xtra/menu","_id":{"$oid":"55f14312c7447c3da7051b51"},"address":"67-69 Elmbank Street","address line 2":"Glasgow","name":"3 In 1 Xtra","outcode":"G2","postcode":"4PQ","rating":4,"type_of_food":"Curry"}
{"URL":"http://www.just-eat.co.uk/restaurants-3in1xtra/menu","_id":{"$oid":"55f14312c7447c3da7051b52"},"address":"67-69 Elmbank Street","address line 2":"Glasgow","name":"3 In 1 Xtra","outcode":"G2","postcode":"4PQ","rating":4,"type_of_food":"Curry"}
{"URL":"http://www.just-eat.co.uk/restaurants-3in1xtra/menu","_id":{"$oid":"55f14312c7447c3da7051b53"},"address":"67-69 Elmbank Street","address line 2":"Glasgow","name":"3 In 1 Xtra","outcode":"G2","postcode":"4PQ","rating":4,"type_of_food":"Curry"}
{"URL":"http://www.just-eat.co.uk/restaurants-321/menu","_id":{"$oid":"55f14312c7447c3da7051b54"},"address":"148 St.Georges Road","address line 2":"Cheltenham","name":"321 Pizzas, Kebabs \u0026 Burgers","outcode":"GL50","postcode":"3EL","rating":5.5,"type_of_food":"Pizza"}
{"URL":"http://www.just-eat.co.uk/restaurants-328chineseonline-cf81/menu","_id":{"$oid":"55f14312c7447c3da7051b55"},"address":"2-4 Commercial Street","address line 2":"Aberbargoed","name":"328 Chinese Online","outcode":"CF81","postcode":"9BW","rating":5,"type_of_food":"Chinese"}
{"URL":"http://www.just-eat.co.uk/restaurants-333-Chinese-FY4/menu","_id":{"$oid":"55f14312c7447c3da7051b56"},"address":"276 Waterloo Road","address line 2":"Blackpool","name":"333 Chinese Takeaway","outcode":"FY4","postcode":"3AF","rating":5,"type_of_food":"Chinese"}
{"URL":"http://www.just-eat.co.uk/restaurants-333Chinese-G13/menu","_id":{"$oid":"55f14312c7447c3da7051b57"},"address":"1550 Great Western Road","address line 2":"Glasgow","name":"333 Chinese Takeaway","outcode":"G13","postcode":"1HJ","rating":5,"type_of_food":"Chinese"}
{"URL":"http://www.just-eat.co.uk/restaurants-333Chinese-M11/menu","_id":{"$oid":"55f14312c7447c3da7051b58"},"address":"1276 Ashton Old Road","address line 2":"Manchester","name":"333 Chinese Takeaway1","outcode":"M11","postcode":"1JJ","rating":4.5,"type_of_food":"Chinese"}
{"URL":"http://www.just-eat.co.uk/restaurants-350wok-ws10/menu","_id":{"$oid":"55f14312c7447c3da7051b59"},"address":"136A Crankhall Lane","address line 2":"Wednesbury","name":"350 Wok","outcode":"WS10","postcode":"0ED","rating":5.5,"type_of_food":"Chinese"}
{"URL":"http://www.just-eat.co.uk/restaurants-350wok-ws10/menu","_id":{"$oid":"55f14312c7447c3da7051b5a"},"address":"136A Crankhall Lane","address line 2":"Wednesbury","name":"350 Wok","outcode":"WS10","postcode":"0ED","rating":5.5,"type_of_food":"Chinese"}
{"URL":"http://www.just-eat.co.uk/restaurants-350wok-ws10/menu","_id":{"$oid":"55f14312c7447c3da7051b5b"},"address":"136A Crankhall Lane","address line 2":"Wednesbury","name":"350 Wok","outcode":"WS10","postcode":"0ED","rating":5.5,"type_of_food":"Chinese"}
{"URL":"http://www.just-eat.co.uk/restaurants-4in1-Express-CH41/menu","_id":{"$oid":"55f14312c7447c3da7051b5c"},"address":"122 Duke Street","address line 2":"Birkenhead","name":"4 in 1 Express","outcode":"CH41","postcode":"8BT","rating":5,"type_of_food":"Pizza"}
{"URL":"http://www.just-eat.co.uk/restaurants-4inlove-pe30/menu","_id":{"$oid":"55f14312c7447c3da7051b5d"},"address":"10-12 Railway Road","address line 2":"Norfolk","name":"4 in Love","outcode":"PE30","postcode":"1NE","rating":5.5,"type_of_food":"Chinese"}
{"URL":"http://www.just-eat.co.uk/restaurants-4500-miles-from-delhi-bristol/menu","_id":{"$oid":"55f14312c7447c3da7051b5e"},"address":"8 Colston Avenue","address line 2":"Bristol","name":"4500 Miles From Delhi","outcode":"BS1","postcode":"4ST","rating":4,"type_of_food":"Curry"}
{"URL":"http://www.just-eat.co.uk/restaurants-4seasonspizzaandgrill-dy3/menu","_id":{"$oid":"55f14312c7447c3da7051b5f"},"address":"12-14 High Street","address line 2":"Dudley","name":"4 Seasons Pizza \u0026 Grill","outcode":"DY3","postcode":"1RW","rating":5,"type_of_food":"Pizza"}
{"URL":"http://www.just-eat.co.uk/restaurants-4550milesfromdelhi-ng1/menu","_id":{"$oid":"55f14312c7447c3da7051b60"},"address":"41 Mount Street","address line 2":"Nottinghamshire","name":"4550 Miles From Delhi - Collection Only","outcode":"NG1","postcode":"6HE","rating":"Not yet rated","type_of_food":"Curry"}
{"URL":"http://www.just-eat.co.uk/restaurants-5in1-pr3/menu","_id":{"$oid":"55f14312c7447c3da7051b61"},"address":"23 Berry Lane","address line 2":"Longridge","name":"5 In 1 Takeaway","outcode":"PR3","postcode":"3JA","rating":5,"type_of_food":"Curry"}
{"URL":"http://www.just-eat.co.uk/restaurants-5n1-dd8/menu","_id":{"$oid":"55f14312c7447c3da7051b62"},"address":"126 Castle Street","address line 2":"Forfar","name":"5 'N' 1","outcode":"DD8","postcode":"2HS","rating":4.5,"type_of_food":"Curry"}
{"URL":"http://www.just-eat.co.uk/restaurants-5-star-chinese-archway/menu","_id":{"$oid":"55f14312c7447c3da7051b63"},"address":"362 Hornsey Road","address line 2":"London","name":"5 Star Chinese","outcode":"N19","postcode":"4HD","rating":5,"type_of_food":"Chinese"}
{"URL":"http://www.just-eat.co.uk/restaurants-5-star-chinese-archway/menu","_id":{"$oid":"55f14312c7447c3da7051b64"},"address":"362 Hornsey Road","address line 2":"London","name":"5 Star Chinese","outcode":"N19","postcode":"4HD","rating":5,"type_of_food":"Chinese"}
{"URL":"http://www.just-eat.co.uk/restaurants-5-star-falafel--gh-butchers-kingsbury/menu","_id":{"$oid":"55f14312c7447c3da7051b65"},"address":"423 Kingsbury Road","address line 2":"London","name":"5 Star Falafel @ GH Butchers","outcode":"NW9","postcode":"9DT","rating":"Not yet rated","type_of_food":"Lebanese"}
{"URL":"http://www.just-eat.co.uk/restaurants-5-star-falafel--gh-butchers-kingsbury/menu","_id":{"$oid":"55f14312c7447c3da7051b66"},"address":"423 Kingsbury Road","address line 2":"London","name":"5 Star Falafel @ GH Butchers","outcode":"NW9","postcode":"9DT","rating":"Not yet rated","type_of_food":"Lebanese"}
{"URL":"http://www.just-eat.co.uk/restaurants-5-star-fish-bar/menu","_id":{"$oid":"55f14312c7447c3da7051b67"},"address":"103 Stafford Street","address line 2":"Walsall","name":"5 Star Fish Bar","outcode":"WS2","postcode":"8DX","rating":5,"type_of_food":"American"}
{"URL":"http://www.just-eat.co.uk/restaurants-5starpizza-ha9/menu","_id":{"$oid":"55f14312c7447c3da7051b68"},"address":"379 High Road","address line 2":"Wembley","name":"5 Star Pizza","outcode":"HA9","postcode":"6AA","rating":2.5,"type_of_food":"Pizza"}
{"URL":"http://www.just-eat.co.uk/restaurants-5starpizza-ha9/menu","_id":{"$oid":"55f14312c7447c3da7051b69"},"address":"379 High Road","address line 2":"Wembley","name":"5 Star Pizza","outcode":"HA9","postcode":"6AA","rating":2.5,"type_of_food":"Pizza"}
{"URL":"http://www.just-eat.co.uk/restaurants-5starpizza-ha9/menu","_id":{"$oid":"55f14312c7447c3da7051b6a"},"address":"379 High Road","address line 2":"Wembley","name":"5 Star Pizza","outcode":"HA9","postcode":"6AA","rating":2.5,"type_of_food":"Pizza"}
{"URL":"http://www.just-eat.co.uk/restaurants-5starpizza-ha9/menu","_id":{"$oid":"55f14312c7447c3da7051b6b"},"address":"379 High Road","address line 2":"Wembley","name":"5 Star Pizza","outcode":"HA9","postcode":"6AA","rating":2.5,"type_of_food":"Pizza"}
{"URL":"http://www.just-eat.co.uk/restaurants-5starpizza-b70/menu","_id":{"$oid":"55f14312c7447c3da7051b6c"},"address":"104 Hiltop Road","address line 2":"West Bromich","name":"5 Star Pizza","outcode":"B70","postcode":"0SH","rating":5,"type_of_food":"Pizza"}
{"URL":"http://www.just-eat.co.uk/restaurants-5starpizza-b70/menu","_id":{"$oid":"55f14312c7447c3da7051b6d"},"address":"104 Hiltop Road","address line 2":"West Bromich","name":"5 Star Pizza","outcode":"B70","postcode":"0SH","rating":5,"type_of_food":"Pizza"}
{"URL":"http://www.just-eat.co.uk/restaurants-5starpizza-b70/menu","_id":{"$oid":"55f14312c7447c3da7051b6e"},"address":"104 Hiltop Road","address line 2":"West Bromich","name":"5 Star Pizza","outcode":"B70","postcode":"0SH","rating":5,"type_of_food":"Pizza"}
{"URL":"http://www.just-eat.co.uk/restaurants-555hotcurry-ct12/menu","_id":{"$oid":"55f14312c7447c3da7051b6f"},"address":"17-19 Northwood Road","address line 2":"Kent","name":"555 Hot Curry","outcode":"CT12","postcode":"6RR","rating":4,"type_of_food":"Curry"}
{"URL":"http://www.just-eat.co.uk/restaurants-555pizza-ct1/menu","_id":{"$oid":"55f14312c7447c3da7051b70"},"address":"72 Castle Street","address line 2":"Canterbury","name":"555 Pizza","outcode":"CT1","postcode":"2QD","rating":4.5,"type_of_food":"Pizza"}
{"URL":"http://www.just-eat.co.uk/restaurants-555pizzaandkebab-ct12/menu","_id":{"$oid":"55f14312c7447c3da7051b71"},"address":"15 Northwood Road","address line 2":"Kent","name":"555 Pizza \u0026 Kebab","outcode":"CT12","postcode":"6RR","rating":4.5,"type_of_food":"Pizza"}
{"URL":"http://www.just-eat.co.uk/restaurants-57-orient-takeawayPR8/menu","_id":{"$oid":"55f14312c7447c3da7051b72"},"address":"81 Upper Aughton Road","address line 2":"Southport","name":"57 Orient Takeaway","outcode":"PR8","postcode":"5ND","rating":4.5,"type_of_food":"Chinese"}
{"URL":"http://www.just-eat.co.uk/restaurants-62worksop-s80/menu","_id":{"$oid":"55f14312c7447c3da7051b73"},"address":"62 Newcastle Avenue","address line 2":"Worksop","name":"62 Worksop Fish Bar","outcode":"S80","postcode":"1LA","rating":5,"type_of_food":"Fish \u0026 Chips"}
{"URL":"http://www.just-eat.co.uk/restaurants-64pizzeria-ls4/menu","_id":{"$oid":"55f14312c7447c3da7051b74"},"address":"64 Burley Road","address line 2":"Leeds","name":"64 Pizzeria","outcode":"LS3","postcode":"1JX","rating":5.5,"type_of_food":"Pizza"}
{"URL":"http://www.just-eat.co.uk/restaurants-7andone-bt53/menu","_id":{"$oid":"55f14312c7447c3da7051b75"},"address":"3 Charles Street","address line 2":"County Antrim","name":"7 \u0026 One","outcode":"BT53","postcode":"6DX","rating":5.5,"type_of_food":"Chinese"}
{"URL":"http://www.just-eat.co.uk/restaurants-7oaksgrilltn13/menu","_id":{"$oid":"55f14312c7447c3da7051b76"},"address":"127 St Johns Hill","address line 2":"Sevenoaks","name":"7 Oaks Grill","outcode":"TN13","postcode":"3PE","rating":4.5,"type_of_food":"English"}
{"URL":"http://www.just-eat.co.uk/restaurants-7spices-s3/menu","_id":{"$oid":"55f14312c7447c3da7051b77"},"address":"Mayfair Court","address line 2":"Sheffield","name":"7 Spices","outcode":"S3","postcode":"8PP","rating":5,"type_of_food":"Curry"}
{"URL":"http://www.just-eat.co.uk/restaurants-7Spices-LS6/menu","_id":{"$oid":"55f14312c7447c3da7051b78"},"address":"203-205 Woodhouse Street","address line 2":"Leeds","name":"7 Spices","outcode":"LS6","postcode":"2NY","rating":5,"type_of_food":"Curry"}
{"URL":"http://www.just-eat.co.uk/restaurants-7spices-g32/menu","_id":{"$oid":"55f14312c7447c3da7051b79"},"address":"975 Carntyne Road","address line 2":"Glasgow","name":"7 Spices Takeaway","outcode":"G32","postcode":"6LY","rating":4.5,"type_of_food":"Curry"}
{"URL":"http://www.just-eat.co.uk/restaurants-7star-ne6/menu","_id":{"$oid":"55f14312c7447c3da7051b7a"},"address":"824 Shields Road","address line 2":"Newcastle","name":"7 STAR Pizza","outcode":"NE6","postcode":"4QN","rating":5.5,"type_of_food":"Pizza"}
{"URL":"http://www.just-eat.co.uk/restaurants-7star-ne6/menu","_id":{"$oid":"55f14312c7447c3da7051b7b"},"address":"824 Shields Road","address line 2":"Newcastle","name":"7 STAR Pizza","outcode":"NE6","postcode":"4QN","rating":5.5,"type_of_food":"Pizza"}
{"URL":"http://www.just-eat.co.uk/restaurants-7star-ne6/menu","_id":{"$oid":"55f14312c7447c3da7051b7c"},"address":"824 Shields Road","address line 2":"Newcastle","name":"7 STAR Pizza","outcode":"NE6","postcode":"4QN","rating":5.5,"type_of_food":"Pizza"}
{"URL":"http://www.just-eat.co.uk/restaurants-7starspices-g52/menu","_id":{"$oid":"55f14312c7447c3da7051b7d"},"address":"828 Mosspark Drive","address line 2":"Lanarkshire","name":"7 Star Spices","outcode":"G52","postcode":"3DA","rating":5.5,"type_of_food":"Pizza"}
{"URL":"http://www.just-eat.co.uk/restaurants-700degrees-gu51/menu","_id":{"$oid":"55f14312c7447c3da7051b7e"},"address":"192-196 Fleet Road","address line 2":"Hampshire","name":"700 Degrees","outcode":"GU51","postcode":"4BY","rating":4.5,"type_of_food":"Chicken"}
{"URL":"http://www.just-eat.co.uk/restaurants-88-chinese-millbrook/menu","_id":{"$oid":"55f14312c7447c3da7051b7f"},"address":"44 London Road","address line 2":"Southampton","name":"88 Chinese","outcode":"SO15","postcode":"2AH","rating":5,"type_of_food":"Chinese"}
{"URL":"http://www.just-eat.co.uk/restaurants-88noodlebar-hd1/menu","_id":{"$oid":"55f14312c7447c3da7051b80"},"address":"15 Cross Church Street","address line 2":"Huddersfield","name":"88 Noodle Bar","outcode":"HD1","postcode":"2PY","rating":4,"type_of_food":"Chinese"}
{"URL":"http://www.just-eat.co.uk/restaurants-888chinese-so23/menu","_id":{"$oid":"55f14312c7447c3da7051b81"},"address":"77 North Walls","address line 2":"Winchester","name":"888 Chinese Takeaway","outcode":"SO23","postcode":"8DA","rating":5,"type_of_food":"Chinese"}
{"URL":"http://www.just-eat.co.uk/restaurants-888tripleeight-bh9/menu","_id":{"$oid":"55f14312c7447c3da7051b82"},"address":"888 Wimborne Road","address line 2":"Bournemouth","name":"888 Triple Eight","outcode":"BH9","postcode":"2DR","rating":5,"type_of_food":"Chinese"}
{"URL":"http://www.just-eat.co.uk/restaurants-9cfc/menu","_id":{"$oid":"55f14312c7447c3da7051b83"},"address":"7 Shopping Precinct","address line 2":"Featherstone","name":"9 Inch CFC","outcode":"WF7","postcode":"5BX","rating":5,"type_of_food":"Pizza"}
{"URL":"http://www.just-eat.co.uk/restaurants-9thavenuepizzeria-bt78/menu","_id":{"$oid":"55f14312c7447c3da7051b84"},"address":"9 Dromore Road","address line 2":"Omagh","name":"9th Avenue Pizzeria","outcode":"BT78","postcode":"1QZ","rating":5.5,"type_of_food":"Pizza"}
{"URL":"http://www.just-eat.co.uk/restaurants-9thkitchen-b26/menu","_id":{"$oid":"55f14312c7447c3da7051b85"},"address":"397 Sheldon Heath Road","address line 2":"Sheldon","name":"9th Kitchen","outcode":"B26","postcode":"2UB","rating":5,"type_of_food":"Chinese"}
{"URL":"http://www.just-eat.co.uk/restaurants-A-G-Kitchen-M40/menu","_id":{"$oid":"55f14312c7447c3da7051b86"},"address":"267 Nuthurst Road","address line 2":"Manchester","name":"A \u0026 G Kitchen","outcode":"M40","postcode":"3PU","rating":5,"type_of_food":"Chinese"}
{"URL":"http://www.just-eat.co.uk/restaurants-a-and-t-mundi-house-iffley/menu","_id":{"$oid":"55f14312c7447c3da7051b87"},"address":"64 Cowley Road","address line 2":"","name":"A \u0026 T Mundi House","outcode":"OX4","postcode":"1JB","rating":4.5,"type_of_food":"Arabic"}
{"URL":"http://www.just-eat.co.uk/restaurants-a-cake-a-shake-stockport/menu","_id":{"$oid":"55f14312c7447c3da7051b88"},"address":"8B - 12B Houldsworth Street","address line 2":"Stockport","name":"A Cake A Shake","outcode":"SK5","postcode":"6DA","rating":4.5,"type_of_food":"Desserts"}
{"URL":"http://www.just-eat.co.uk/restaurants-a-cake-a-shake-stockport/menu","_id":{"$oid":"55f14312c7447c3da7051b89"},"address":"8B - 12B Houldsworth Street","address line 2":"Stockport","name":"A Cake A Shake","outcode":"SK5","postcode":"6DA","rating":4.5,"type_of_food":"Desserts"}
{"URL":"http://www.just-eat.co.uk/restaurants-afishcalledrhondda-cf42/menu","_id":{"$oid":"55f14312c7447c3da7051b8a"},"address":"19 - 20 Church Road","address line 2":"Mid Glamorgan","name":"A Fish Called Rhondda","outcode":"CF41","postcode":"7ED","rating":5.5,"type_of_food":"English"}
{"URL":"http://www.just-eat.co.uk/restaurants-alapizza/menu","_id":{"$oid":"55f14312c7447c3da7051b8b"},"address":"28 Upton Lane","address line 2":"London","name":"A La Pizza","outcode":"E7","postcode":"9LN","rating":4.5,"type_of_food":"Pizza"}
{"URL":"http://www.just-eat.co.uk/restaurants-alapizza/menu","_id":{"$oid":"55f14312c7447c3da7051b8c"},"address":"28 Upton Lane","address line 2":"London","name":"A La Pizza","outcode":"E7","postcode":"9LN","rating":4.5,"type_of_food":"Pizza"}
{"URL":"http://www.just-eat.co.uk/restaurants-alaturka-pr7/menu","_id":{"$oid":"55f14312c7447c3da7051b8d"},"address":"99 Market Street","address line 2":"Chorley","name":"A La Turka","outcode":"PR7","postcode":"2SQ","rating":5.5,"type_of_food":"Pizza"}
{"URL":"http://www.just-eat.co.uk/restaurants-ammians-bl1/menu","_id":{"$oid":"55f14312c7447c3da7051b8e"},"address":"60 Great Moor Street","address line 2":"Bolton","name":"A M Mians","outcode":"BL1","postcode":"1SN","rating":5.5,"type_of_food":"Kebab"}
{"URL":"http://www.just-eat.co.uk/restaurants-ammians-bl1/menu","_id":{"$oid":"55f14312c7447c3da7051b8f"},"address":"60 Great Moor Street","address line 2":"Bolton","name":"A M Mians","outcode":"BL1","postcode":"1SN","rating":5.5,"type_of_food":"Kebab"}
{"URL":"http://www.just-eat.co.uk/restaurants-amatteroftaste-po6/menu","_id":{"$oid":"55f14312c7447c3da7051b90"},"address":"7 Spur Road","address line 2":"Cosham","name":"A Matter Of Taste","outcode":"PO6","postcode":"3DY","rating":5,"type_of_food":"Pizza"}
{"URL":"http://www.just-eat.co.uk/restaurants-aonetandoori-ka21/menu","_id":{"$oid":"55f14312c7447c3da7051b91"},"address":"43 Hamilton Street","address line 2":"Ayrshire","name":"A One Tandoori","outcode":"KA21","postcode":"5DT","rating":5,"type_of_food":"Curry"}
{"URL":"http://www.just-eat.co.uk/restaurants-a-passage-to-india/menu","_id":{"$oid":"55f14312c7447c3da7051b92"},"address":"76 Bold Street","address line 2":"Liverpool","name":"A Passage To India","outcode":"L1","postcode":"4HR","rating":5,"type_of_food":"Curry"}
{"URL":"http://www.just-eat.co.uk/restaurants-apassagetoindia-sk22/menu","_id":{"$oid":"55f14312c7447c3da7051b93"},"address":"29 Union Road","address line 2":"Derbyshire","name":"A Passage To India","outcode":"SK22","postcode":"3EL","rating":5.5,"type_of_food":"Curry"}
{"URL":"http://www.just-eat.co.uk/restaurants-sealandfishbar-ct1/menu","_id":{"$oid":"55f14312c7447c3da7051b94"},"address":"71 Sturry Road","address line 2":"Canterbury","name":"A Sealand Fish Bar - Collection Only","outcode":"CT1","postcode":"1BU","rating":5,"type_of_food":"Fish \u0026 Chips"}
{"URL":"http://www.just-eat.co.uk/restaurants-astarpizza-bl3/menu","_id":{"$oid":"55f14312c7447c3da7051b95"},"address":"289 Lever Street","address line 2":"Bolton","name":"A Star Chippy","outcode":"BL3","postcode":"6PD","rating":5.5,"type_of_food":"Fish \u0026 Chips"}
{"URL":"http://www.just-eat.co.uk/restaurants-a-taskinha-plymouth/menu","_id":{"$oid":"55f14312c7447c3da7051b96"},"address":"55 Union Street","address line 2":"Plymouth","name":"A Taskinha","outcode":"PL1","postcode":"3LU","rating":5.5,"type_of_food":"Portuguese"}
{"URL":"http://www.just-eat.co.uk/restaurants-atasteofpersia-ne1/menu","_id":{"$oid":"55f14312c7447c3da7051b97"},"address":"14 Marlborough Cresent","address line 2":"Newcastle","name":"A Taste Of Persia - Collection Only","outcode":"NE1","postcode":"4EE","rating":5.5,"type_of_food":"Persian"}
{"URL":"http://www.just-eat.co.uk/restaurants-atasteofpersia-ne1/menu","_id":{"$oid":"55f14312c7447c3da7051b98"},"address":"14 Marlborough Cresent","address line 2":"Newcastle","name":"A Taste Of Persia - Collection Only","outcode":"NE1","postcode":"4EE","rating":5.5,"type_of_food":"Persian"}
{"URL":"http://www.just-eat.co.uk/restaurants-a-to-buy-fish-chips-ab11/menu","_id":{"$oid":"55f14312c7447c3da7051b99"},"address":"7-9 Langstane Place","address line 2":"Aberdeen","name":"A To Buy Fish \u0026 Chips","outcode":"AB11","postcode":"6DX","rating":4.5,"type_of_food":"Fish \u0026 Chips"}
{"URL":"http://www.just-eat.co.uk/restaurants-a-touch-of-spice/menu","_id":{"$oid":"55f14312c7447c3da7051b9a"},"address":"32 Church Street","address line 2":"Radcliffe","name":"A Touch of Spice","outcode":"M26","postcode":"2SQ","rating":5,"type_of_food":"Curry"}
{"URL":"http://www.just-eat.co.uk/restaurants-a-touch-of-spice/menu","_id":{"$oid":"55f14312c7447c3da7051b9b"},"address":"32 Church Street","address line 2":"Radcliffe","name":"A Touch of Spice","outcode":"M26","postcode":"2SQ","rating":5,"type_of_food":"Curry"}
{"URL":"http://www.just-eat.co.uk/restaurants-aworldofflavours-de24/menu","_id":{"$oid":"55f14312c7447c3da7051b9c"},"address":"44 Pilgrims Way","address line 2":"Derby","name":"A World Of Fl@vours","outcode":"DE24","postcode":"3JG","rating":4.5,"type_of_food":"Curry"}
{"URL":"http://www.just-eat.co.uk/restaurants-a-yummy-pizza-bn21/menu","_id":{"$oid":"55f14312c7447c3da7051b9d"},"address":"85 Cavendish Place","address line 2":"Eastbourne","name":"A Yummy Pizza","outcode":"BN21","postcode":"3RR","rating":5.5,"type_of_food":"Pizza"}
{"URL":"http://www.just-eat.co.uk/restaurants-aandaperiperi-al1/menu","_id":{"$oid":"55f14312c7447c3da7051b9e"},"address":"124 London Road","address line 2":"Hertforshire","name":"A\u0026A Peri Peri","outcode":"AL1","postcode":"1PQ","rating":4.5,"type_of_food":"Peri Peri"}
{"URL":"http://www.just-eat.co.uk/restaurants-aands-fast-food-littleover/menu","_id":{"$oid":"55f14312c7447c3da7051b9f"},"address":"74b Osmaston Road","address line 2":"Derbyshire","name":"A\u0026S Fast Food","outcode":"DE1","postcode":"2HZ","rating":3.5,"type_of_food":"Curry"}
{"URL":"http://www.just-eat.co.uk/restaurants-ajspizza-wr3/menu","_id":{"$oid":"55f14312c7447c3da7051ba0"},"address":"8 Laslett Street","address line 2":"Worcester","name":"A.J's Pizza","outcode":"WR3","postcode":"8JS","rating":5.5,"type_of_food":"Pizza"}
{"URL":"http://www.just-eat.co.uk/restaurants-eko-food-market-charton/menu","_id":{"$oid":"55f14312c7447c3da7051ba1"},"address":"Unit 5 Meridan Estate","address line 2":"London","name":"èkó Food Market","outcode":"SE7","postcode":"7SJ","rating":4,"type_of_food":"African"}
{"URL":"http://www.just-eat.co.uk/restaurants-eko-food-market-charton/menu","_id":{"$oid":"55f14312c7447c3da7051ba2"},"address":"Unit 5 Meridan Estate","address line 2":"London","name":"èkó Food Market","outcode":"SE7","postcode":"7SJ","rating":4,"type_of_food":"African"}
{"URL":"http://www.just-eat.co.uk/restaurants-1fishshop-pa3/menu","_id":{"$oid":"55f14312c7447c3da7051ba3"},"address":"22 Old Sneddon Street","address line 2":"Paisley","name":"£1 Fish Shop","outcode":"PA3","postcode":"2AL","rating":3.5,"type_of_food":"Fish \u0026 Chips"}
{"URL":"http://www.just-eat.co.uk/restaurants-albaltihouse-m23/menu","_id":{"$oid":"55f14312c7447c3da7051ba4"},"address":"124 Sale Road","address line 2":"Nothern Moor","name":"A1 Balti House","outcode":"M23","postcode":"0BX","rating":5.5,"type_of_food":"Curry"}
{"URL":"http://www.just-eat.co.uk/restaurants-albaltihouse-m23/menu","_id":{"$oid":"55f14312c7447c3da7051ba5"},"address":"124 Sale Road","address line 2":"Nothern Moor","name":"A1 Balti House","outcode":"M23","postcode":"0BX","rating":5.5,"type_of_food":"Curry"}
{"URL":"http://www.just-eat.co.uk/restaurants-a1-pizzas/menu","_id":{"$oid":"55f14312c7447c3da7051ba6"},"address":"14 County Place","address line 2":"Perth","name":"A1 Pizzas","outcode":"PH2","postcode":"8EE","rating":5,"type_of_food":"Pizza"}
{"URL":"http://www.just-eat.co.uk/restaurants-ricenspice/menu","_id":{"$oid":"55f14312c7447c3da7051ba7"},"address":"82 Manor Street","address line 2":"Braintree","name":"A1 Rice 'N' Spice","outcode":"CM7","postcode":"3HR","rating":5,"type_of_food":"Curry"}
{"URL":"http://www.just-eat.co.uk/restaurants-a1wok-g72/menu","_id":{"$oid":"55f14312c7447c3da7051ba8"},"address":"Unit 2c Hallside Court Cambuslang","address line 2":"Glasgow","name":"A1 Wok","outcode":"G72","postcode":"7FB","rating":4.5,"type_of_food":"Chinese"}
{"URL":"http://www.just-eat.co.uk/restaurants-a12spice-ig2/menu","_id":{"$oid":"55f14312c7447c3da7051ba9"},"address":"980 Eastern Avenue","address line 2":"Ilford","name":"A12 Spice","outcode":"IG2","postcode":"7JD","rating":5.5,"type_of_food":"Curry"}
{"URL":"http://www.just-eat.co.uk/restaurants-a12spice-ig2/menu","_id":{"$oid":"55f14312c7447c3da7051baa"},"address":"980 Eastern Avenue","address line 2":"Ilford","name":"A12 Spice","outcode":"IG2","postcode":"7JD","rating":5.5,"type_of_food":"Curry"}
{"URL":"http://www.just-eat.co.uk/restaurants-a12spice-ig2/menu","_id":{"$oid":"55f14312c7447c3da7051bab"},"address":"980 Eastern Avenue","address line 2":"Ilford","name":"A12 Spice","outcode":"IG2","postcode":"7JD","rating":5.5,"type_of_food":"Curry"}
{"URL":"http://www.just-eat.co.uk/restaurants-a4pizzaandkebab-rg20/menu","_id":{"$oid":"55f14312c7447c3da7051bac"},"address":"Elcot Park","address line 2":"Newbury","name":"A4 Pizza \u0026 Kebab","outcode":"RG20","postcode":"8NJ","rating":5.5,"type_of_food":"Pizza"}
{"URL":"http://www.just-eat.co.uk/restaurants-aa-charcoal-grill-woodingdean/menu","_id":{"$oid":"55f14312c7447c3da7051bad"},"address":"41 Lewes Road","address line 2":"Woodingdean","name":"AA Charcoal Grill","outcode":"BN2","postcode":"3HQ","rating":4,"type_of_food":"Kebab"}
{"URL":"http://www.just-eat.co.uk/restaurants-aa-charcoal-grill-woodingdean/menu","_id":{"$oid":"55f14312c7447c3da7051bae"},"address":"41 Lewes Road","address line 2":"Woodingdean","name":"AA Charcoal Grill","outcode":"BN2","postcode":"3HQ","rating":4,"type_of_food":"Kebab"}
{"URL":"http://www.just-eat.co.uk/restaurants-aachichettinad-ha0/menu","_id":{"$oid":"55f14312c7447c3da7051baf"},"address":"545 High Road","address line 2":"Wembley","name":"Aachi Chettinad","outcode":"HA0","postcode":"2DJ","rating":4,"type_of_food":"Curry"}
{"URL":"http://www.just-eat.co.uk/restaurants-aachichettinad-ha0/menu","_id":{"$oid":"55f14312c7447c3da7051bb0"},"address":"545 High Road","address line 2":"Wembley","name":"Aachi Chettinad","outcode":"HA0","postcode":"2DJ","rating":4,"type_of_food":"Curry"}
{"URL":"http://www.just-eat.co.uk/restaurants-aadams-m5/menu","_id":{"$oid":"55f14312c7447c3da7051bb1"},"address":"Unit 2a Trafford Road","address line 2":"Salford","name":"Aadams Authentic Grill","outcode":"M5","postcode":"3AW","rating":4.5,"type_of_food":"Kebab"}
{"URL":"http://www.just-eat.co.uk/restaurants-aakashbalti-wf13/menu","_id":{"$oid":"55f14312c7447c3da7051bb2"},"address":"1 Moor End Lane","address line 2":"Dewsbury","name":"Aakash Balti","outcode":"WF13","postcode":"4QE","rating":5,"type_of_food":"Curry"}
{"URL":"http://www.just-eat.co.uk/restaurants-AakashBaltiHG5/menu","_id":{"$oid":"55f14312c7447c3da7051bb3"},"address":"57 High Street","address line 2":"Knaresborough","name":"Aakash Balti","outcode":"HG5","postcode":"0HB","rating":5.5,"type_of_food":"Curry"}
{"URL":"http://www.just-eat.co.uk/restaurants-AakashBaltiHG5/menu","_id":{"$oid":"55f14312c7447c3da7051bb4"},"address":"57 High Street","address line 2":"Knaresborough","name":"Aakash Balti","outcode":"HG5","postcode":"0HB","rating":5.5,"type_of_food":"Curry"}
{"URL":"http://www.just-eat.co.uk/restaurants-aakash-restaurant/menu","_id":{"$oid":"55f14312c7447c3da7051bb5"},"address":"Providence Place","address line 2":"Cleckheaton","name":"Aakash Restaurant","outcode":"BD19","postcode":"3PN","rating":5,"type_of_food":"Curry"}
{"URL":"http://www.just-eat.co.uk/restaurants-aakash-restaurant/menu","_id":{"$oid":"55f14312c7447c3da7051bb6"},"address":"Providence Place","address line 2":"Cleckheaton","name":"Aakash Restaurant","outcode":"BD19","postcode":"3PN","rating":5,"type_of_food":"Curry"}
{"URL":"http://www.just-eat.co.uk/restaurants-aamaya-ml3/menu","_id":{"$oid":"55f14312c7447c3da7051bb7"},"address":"23 Gateside Street","address line 2":"Lankarkshire","name":"Aamaya","outcode":"ML3","postcode":"7HT","rating":4,"type_of_food":"Curry"}
{"URL":"http://www.just-eat.co.uk/restaurants-aaminospizza-ha2/menu","_id":{"$oid":"55f14312c7447c3da7051bb8"},"address":"79 Station Road","address line 2":"Middlesex","name":"Aamino's Pizza","outcode":"HA2","postcode":"7SW","rating":4.5,"type_of_food":"Pizza"}
{"URL":"http://www.just-eat.co.uk/restaurants-aaniasindian-pa15/menu","_id":{"$oid":"55f14312c7447c3da7051bb9"},"address":"11/12 Grey Place","address line 2":"Greenock","name":"Aanias Takeaway","outcode":"PA15","postcode":"1YF","rating":5,"type_of_food":"Curry"}
{"URL":"http://www.just-eat.co.uk/restaurants-aaqafastfood-tw3/menu","_id":{"$oid":"55f14312c7447c3da7051bba"},"address":"34 Bell Road","address line 2":"Hounslow","name":"AAQA Fast Food","outcode":"TW3","postcode":"3PB","rating":5,"type_of_food":"Pizza"}
{"URL":"http://www.just-eat.co.uk/restaurants-aarisindian-s61/menu","_id":{"$oid":"55f14312c7447c3da7051bbb"},"address":"113 Psalters Lane","address line 2":"Rotherham","name":"Aaris Indian Restaurant","outcode":"S61","postcode":"1DL","rating":5,"type_of_food":"Curry"}
{"URL":"http://www.just-eat.co.uk/restaurants-aarthi-sw19/menu","_id":{"$oid":"55f14312c7447c3da7051bbc"},"address":"5 Kingston Road","address line 2":"London","name":"Aarthi","outcode":"SW19","postcode":"1JX","rating":6,"type_of_food":"Curry"}
{"URL":"http://www.just-eat.co.uk/restaurants-ashianam34/menu","_id":{"$oid":"55f14312c7447c3da7051bbd"},"address":"17-19 Ashton Road Denton","address line 2":"Manchester","name":"Aashiana","outcode":"M34","postcode":"3LF","rating":5,"type_of_food":"Curry"}
{"URL":"http://www.just-eat.co.uk/restaurants-a6-grill-stockport/menu","_id":{"$oid":"55f14312c7447c3da7051bbe"},"address":"279 Buxton Road","address line 2":"Cheshire","name":"A6 Grill","outcode":"SK2","postcode":"7NR","rating":5.5,"type_of_food":"Kebab"}
{"URL":"http://www.just-eat.co.uk/restaurants-ashianam34/menu","_id":{"$oid":"55f14312c7447c3da7051bbf"},"address":"17-19 Ashton Road Denton","address line 2":"Manchester","name":"Aashiana","outcode":"M34","postcode":"3LF","rating":5,"type_of_food":"Curry"}
{"URL":"http://www.just-eat.co.uk/restaurants-aashirs-le2/menu","_id":{"$oid":"55f14312c7447c3da7051bc0"},"address":"98 Welford Road","address line 2":"Leicester","name":"Aashir's","outcode":"LE2","postcode":"7AB","rating":4.5,"type_of_food":"Chicken"}
{"URL":"http://www.just-eat.co.uk/restaurants-aashirs-le2/menu","_id":{"$oid":"55f14312c7447c3da7051bc1"},"address":"98 Welford Road","address line 2":"Leicester","name":"Aashir's","outcode":"LE2","postcode":"7AB","rating":4.5,"type_of_food":"Chicken"}
{"URL":"http://www.just-eat.co.uk/restaurants-aayans-s14/menu","_id":{"$oid":"55f14312c7447c3da7051bc2"},"address":"179 Blackstock Road","address line 2":"Sheffield","name":"Aayan's","outcode":"S14","postcode":"1FX","rating":5,"type_of_food":"Curry"}
{"URL":"http://www.just-eat.co.uk/restaurants-ab-pizza-and-grill/menu","_id":{"$oid":"55f14312c7447c3da7051bc3"},"address":"149 Layton Road","address line 2":"Blackpool","name":"AB Pizza and Grill","outcode":"FY3","postcode":"8HH","rating":5.5,"type_of_food":"Turkish"}
{"URL":"http://www.just-eat.co.uk/restaurants-ababil/menu","_id":{"$oid":"55f14312c7447c3da7051bc4"},"address":"242 Green Lane","address line 2":"London","name":"Ababil","outcode":"SE9","postcode":"3TL","rating":4.5,"type_of_food":"Curry"}
{"URL":"http://www.just-eat.co.uk/restaurants-ababil/menu","_id":{"$oid":"55f14312c7447c3da7051bc5"},"address":"242 Green Lane","address line 2":"London","name":"Ababil","outcode":"SE9","postcode":"3TL","rating":4.5,"type_of_food":"Curry"}
{"URL":"http://www.just-eat.co.uk/restaurants-abaseen-m19/menu","_id":{"$oid":"55f14312c7447c3da7051bc6"},"address":"999 Stockport Road","address line 2":"Manchester","name":"Abaseen","outcode":"M19","postcode":"2SY","rating":5.5,"type_of_food":"Kebab"}
{"URL":"http://www.just-eat.co.uk/restaurants-abaseen-m19/menu","_id":{"$oid":"55f14312c7447c3da7051bc7"},"address":"999 Stockport Road","address line 2":"Manchester","name":"Abaseen","outcode":"M19","postcode":"2SY","rating":5.5,"type_of_food":"Kebab"}
{"URL":"http://www.just-eat.co.uk/restaurants-abbeyfishbar-de22/menu","_id":{"$oid":"55f14312c7447c3da7051bc8"},"address":"1 King Alfred Street","address line 2":"Derby","name":"Abbey Fish Bar","outcode":"DE22","postcode":"3QL","rating":5.5,"type_of_food":"Fish \u0026 Chips"}
{"URL":"http://www.just-eat.co.uk/restaurants-abbeyfishbar-de22/menu","_id":{"$oid":"55f14312c7447c3da7051bc9"},"address":"1 King Alfred Street","address line 2":"Derby","name":"Abbey Fish Bar","outcode":"DE22","postcode":"3QL","rating":5.5,"type_of_food":"Fish \u0026 Chips"}
{"URL":"http://www.just-eat.co.uk/restaurants-abbeyfryers-le4/menu","_id":{"$oid":"55f14312c7447c3da7051bca"},"address":"413 Abbey Lane","address line 2":"Leicester","name":"Abbey Fryers Fish Bar \u0026 Balti House","outcode":"LE4","postcode":"5QJ","rating":4.5,"type_of_food":"Curry"}
{"URL":"http://www.just-eat.co.uk/restaurants-abbeymeadsindianrestaurant-sn25/menu","_id":{"$oid":"55f14312c7447c3da7051bcb"},"address":"5 Neighbourhood Centre","address line 2":"Whiltshire","name":"Abbey Meads Indian Restaurant \u0026 Takeaway","outcode":"SN25","postcode":"4FD","rating":5,"type_of_food":"Curry"}
{"URL":"http://www.just-eat.co.uk/restaurants-abbey-spice-al1/menu","_id":{"$oid":"55f14312c7447c3da7051bcc"},"address":"66-68 Stanhope Road","address line 2":"St Albans","name":"Abbey Spice","outcode":"AL1","postcode":"5BL","rating":5,"type_of_food":"Curry"}
{"URL":"http://www.just-eat.co.uk/restaurants-abbeytandoori-ne63/menu","_id":{"$oid":"55f14312c7447c3da7051bcd"},"address":"97 Woodhorn Road","address line 2":"Ashington","name":"Abbey Tandoori","outcode":"NE63","postcode":"9EX","rating":5,"type_of_food":"Curry"}
{"URL":"http://www.just-eat.co.uk/restaurants-abbeyfry-ky11/menu","_id":{"$oid":"55f14312c7447c3da7051bce"},"address":"13 Allen Crescent","address line 2":"Dunfurmline","name":"Abbeyfry Fish and Chips","outcode":"KY11","postcode":"4HE","rating":4,"type_of_food":"Fish \u0026 Chips"}
{"URL":"http://www.just-eat.co.uk/restaurants-abbeyfrypizzeria-ky11/menu","_id":{"$oid":"55f14312c7447c3da7051bcf"},"address":"13a Allen Cresent","address line 2":"Dunfermline","name":"Abbeyfry Pizzeria \u0026 Kebab House","outcode":"KY11","postcode":"4HE","rating":4.5,"type_of_food":"Pizza"}
{"URL":"http://www.just-eat.co.uk/restaurants-abbeysbaltivillage-ne31/menu","_id":{"$oid":"55f14312c7447c3da7051bd0"},"address":"10 Ann Street","address line 2":"Hebburn","name":"Abbey's Balti Village","outcode":"NE31","postcode":"1DP","rating":4.5,"type_of_food":"Curry"}
{"URL":"http://www.just-eat.co.uk/restaurants-abbeys-fish-and-chips-and-pizza-place-paisley/menu","_id":{"$oid":"55f14312c7447c3da7051bd1"},"address":"4 Silk Street","address line 2":"Paisley","name":"Abbey's Fish \u0026 Chips \u0026 Pizza Place","outcode":"PA1","postcode":"1HG","rating":3.5,"type_of_food":"Fish \u0026 Chips"}
{"URL":"http://www.just-eat.co.uk/restaurants-abbysjunctionpizzeria-ts5/menu","_id":{"$oid":"55f14312c7447c3da7051bd2"},"address":"Pilkington Building","address line 2":"Middlesbrough","name":"Abbeys Junction Pizzeria","outcode":"TS5","postcode":"6OY","rating":5.5,"type_of_food":"Pizza"}
{"URL":"http://www.just-eat.co.uk/restaurants-abbeys-pizza/menu","_id":{"$oid":"55f14312c7447c3da7051bd3"},"address":"94 Corporation Road","address line 2":"Middlesbrough","name":"Abbey's Pizza","outcode":"TS1","postcode":"2RB","rating":5,"type_of_food":"American"}
{"URL":"http://www.just-eat.co.uk/restaurants-abbeywoodtandoori-se2/menu","_id":{"$oid":"55f14312c7447c3da7051bd4"},"address":"No:13 Wickham Lane","address line 2":"Abbeywood","name":"Abbeywood Tandoori","outcode":"SE2","postcode":"0XJ","rating":5,"type_of_food":"Curry"}
{"URL":"http://www.just-eat.co.uk/restaurants-Abbiespizzalimited-cw8/menu","_id":{"$oid":"55f14312c7447c3da7051bd5"},"address":"16 Greenbank Lane","address line 2":"Northwich","name":"Abbies Pizza","outcode":"CW8","postcode":"1JQ","rating":5,"type_of_food":"Turkish"}
{"URL":"http://www.just-eat.co.uk/restaurants-abbysdiner-s60/menu","_id":{"$oid":"55f14312c7447c3da7051bd6"},"address":"8 Domine Lane","address line 2":"Rotherham","name":"Abby's Diner","outcode":"S60","postcode":"1AQ","rating":4,"type_of_food":"Fish \u0026 Chips"}
{"URL":"http://www.just-eat.co.uk/restaurants-abdulhadi-m13/menu","_id":{"$oid":"55f14312c7447c3da7051bd7"},"address":"298 Oxford Road","address line 2":"Manchester","name":"Abdul Hadi","outcode":"M13","postcode":"9NS","rating":5,"type_of_food":"Curry"}
{"URL":"http://www.just-eat.co.uk/restaurants-abdulhadi-m13/menu","_id":{"$oid":"55f14312c7447c3da7051bd8"},"address":"298 Oxford Road","address line 2":"Manchester","name":"Abdul Hadi","outcode":"M13","postcode":"9NS","rating":5,"type_of_food":"Curry"}
{"URL":"http://www.just-eat.co.uk/restaurants-abdulspice-st13/menu","_id":{"$oid":"55f14312c7447c3da7051bd9"},"address":"41 Stockwell Street","address line 2":"Staffordshire","name":"Abdul Spice","outcode":"ST13","postcode":"6DH","rating":5,"type_of_food":"Curry"}
{"URL":"http://www.just-eat.co.uk/restaurants-abduls-bd21-1/menu","_id":{"$oid":"55f14312c7447c3da7051bda"},"address":"164 Queens Road","address line 2":"Bradford","name":"Abduls","outcode":"BD21","postcode":"1BG","rating":5,"type_of_food":"Curry"}
{"URL":"http://www.just-eat.co.uk/restaurants-abduls-eh10/menu","_id":{"$oid":"55f14312c7447c3da7051bdb"},"address":"22 Comiston Road","address line 2":"Edinburgh","name":"Abduls","outcode":"EH10","postcode":"5QE","rating":5,"type_of_food":"Curry"}
{"URL":"http://www.just-eat.co.uk/restaurants-abdulsindian-bh7/menu","_id":{"$oid":"55f14312c7447c3da7051bdc"},"address":"736 Christchurch Road","address line 2":"Dorset","name":"Abdul's","outcode":"BH7","postcode":"6BZ","rating":5,"type_of_food":"Curry"}